{
  "type": "FeatureCollection",
  "features": [
    {
      "type": "Feature",
      "properties": {
        "Cancha": "ETP_1_1_589.4_4",
        "name": "ETP_1_1_589.4_4"
      },
      "geometry": {
        "type": "Polygon",
        "coordinates": [
          [
            [
              -70.31299693,
              -27.44051596
            ],
            [
              -70.312683,
              -27.44084147
            ],
            [
              -70.31240876,
              -27.44070151
            ],
            [
              -70.31236422,
              -27.44054846
            ],
            [
              -70.31107445,
              -27.43969705
            ],
            [
              -70.3112483,
              -27.43946647
            ],
            [
              -70.31299693,
              -27.44051596
            ]
          ]
        ]
      }
    },
    {
      "type": "Feature",
      "properties": {
        "Cancha": "ETP_1_1_589.4_5",
        "name": "ETP_1_1_589.4_5"
      },
      "geometry": {
        "type": "Polygon",
        "coordinates": [
          [
            [
              -70.31010058,
              -27.43877762
            ],
            [
              -70.3112483,
              -27.43946647
            ],
            [
              -70.31107445,
              -27.43969705
            ],
            [
              -70.31019434,
              -27.43895479
            ],
            [
              -70.31011441,
              -27.43886441
            ],
            [
              -70.31010058,
              -27.43877762
            ]
          ]
        ]
      }
    },
    {
      "type": "Feature",
      "properties": {
        "Cancha": "ETP_1_1_591.8_3",
        "name": "ETP_1_1_591.8_3"
      },
      "geometry": {
        "type": "Polygon",
        "coordinates": [
          [
            [
              -70.31337013,
              -27.44077457
            ],
            [
              -70.31379639,
              -27.4410304
            ],
            [
              -70.31332689,
              -27.44133662
            ],
            [
              -70.31315818,
              -27.44118134
            ],
            [
              -70.31337013,
              -27.44077457
            ]
          ]
        ]
      }
    },
    {
      "type": "Feature",
      "properties": {
        "Cancha": "ETP_1_1_595.4_1",
        "name": "ETP_1_1_595.4_1"
      },
      "geometry": {
        "type": "Polygon",
        "coordinates": [
          [
            [
              -70.31634139,
              -27.44296803
            ],
            [
              -70.31458232,
              -27.44191237
            ],
            [
              -70.31444802,
              -27.4420905
            ],
            [
              -70.31612174,
              -27.44308615
            ],
            [
              -70.31634139,
              -27.44296803
            ]
          ]
        ]
      }
    },
    {
      "type": "Feature",
      "properties": {
        "Cancha": "ETP_1_1_595.4_2",
        "name": "ETP_1_1_595.4_2"
      },
      "geometry": {
        "type": "Polygon",
        "coordinates": [
          [
            [
              -70.31395089,
              -27.44153342
            ],
            [
              -70.3138432,
              -27.44167625
            ],
            [
              -70.31444802,
              -27.4420905
            ],
            [
              -70.31458232,
              -27.44191237
            ],
            [
              -70.31395089,
              -27.44153342
            ]
          ]
        ]
      }
    },
    {
      "type": "Feature",
      "properties": {
        "Cancha": "ETP_2_2_594.8_1",
        "name": "ETP_2_2_594.8_1"
      },
      "geometry": {
        "type": "Polygon",
        "coordinates": [
          [
            [
              -70.31654618,
              -27.44272393
            ],
            [
              -70.31633057,
              -27.44295286
            ],
            [
              -70.31458681,
              -27.4419064
            ],
            [
              -70.31477281,
              -27.44165969
            ],
            [
              -70.31654618,
              -27.44272393
            ]
          ]
        ]
      }
    },
    {
      "type": "Feature",
      "properties": {
        "Cancha": "ETP_2_2_594.8_2",
        "name": "ETP_2_2_594.8_2"
      },
      "geometry": {
        "type": "Polygon",
        "coordinates": [
          [
            [
              -70.31490385,
              -27.4414859
            ],
            [
              -70.31441728,
              -27.44124586
            ],
            [
              -70.31429116,
              -27.44137064
            ],
            [
              -70.31414139,
              -27.44128075
            ],
            [
              -70.31395539,
              -27.44152746
            ],
            [
              -70.31458681,
              -27.4419064
            ],
            [
              -70.31490385,
              -27.4414859
            ]
          ]
        ]
      }
    },
    {
      "type": "Feature",
      "properties": {
        "Cancha": "MC_582.8_1",
        "name": "MC_582.8_1"
      },
      "geometry": {
        "type": "Polygon",
        "coordinates": [
          [
            [
              -70.31493291,
              -27.44042137
            ],
            [
              -70.31481601,
              -27.44063723
            ],
            [
              -70.31655049,
              -27.44170649
            ],
            [
              -70.31682655,
              -27.44177895
            ],
            [
              -70.3169555,
              -27.4417242
            ],
            [
              -70.31565836,
              -27.4408282
            ],
            [
              -70.31557288,
              -27.44069395
            ],
            [
              -70.31493291,
              -27.44042137
            ]
          ]
        ]
      }
    }
  ]
}